METEOSAT-11 (MSG-4)     
1 40732U 15034A   26094.89117326  .00000065  00000+0  00000+0 0  9996
2 40732   3.0178  71.4926 0001739 285.2508 166.5854  1.00276040  6489
ELEKTRO-L 2             
1 41105U 15074A   26094.74383198 -.00000114  00000+0  00000+0 0  9997
2 41105   6.5108  71.4154 0002637 258.0634 116.8747  1.00272296 37778
INSAT-3DR               
1 41752U 16054A   26094.91483429 -.00000077  00000+0  00000+0 0  9999
2 41752   0.1290  86.8069 0012081 196.6229 313.1427  1.00273688 35089
HIMAWARI-9              
1 41836U 16064A   26094.96665135 -.00000274  00000+0  00000+0 0  9993
2 41836   0.0480 108.4251 0001246 289.4240 284.1926  1.00271139 34473
GOES 16                 
1 41866U 16071A   26094.86857429 -.00000090  00000+0  00000+0 0  9998
2 41866   0.1740  85.2963 0001845 246.4712  69.3990  1.00272259 34366
FENGYUN 4A              
1 41882U 16077A   26094.91378392 -.00000355  00000+0  00000+0 0  9999
2 41882   2.1375  81.0256 0007901 139.4162  65.3806  1.00278713 34192
CYGFM05                 
1 41884U 16078A   26094.93052576  .00028437  00000+0  43134-3 0  9996
2 41884  34.9589  24.5182 0007071 194.1640 165.8886 15.53573249517343
CYGFM04                 
1 41885U 16078B   26094.91667668  .00035007  00000+0  45689-3 0  9997
2 41885  34.9344 355.6605 0007097 234.9826 125.0232 15.57599205517558
CYGFM02                 
1 41886U 16078C   26094.90811298  .00037554  00000+0  45025-3 0  9990
2 41886  34.9426 352.0489 0008111 233.4445 126.5533 15.59815078517708
CYGFM01                 
1 41887U 16078D   26094.88455214  .00029001  00000+0  43080-3 0  9997
2 41887  34.9420  26.4343 0006548 187.3159 172.7470 15.54146057517280
CYGFM08                 
1 41888U 16078E   26094.89441945  .00032099  00000+0  43868-3 0  9990
2 41888  34.9455   7.6998 0008646 214.3202 145.6964 15.56369159517534
CYGFM07                 
1 41890U 16078G   26094.85772202  .00032330  00000+0  44078-3 0  9994
2 41890  34.9467 356.3423 0007518 232.9281 127.0757 15.56442502517557
CYGFM03                 
1 41891U 16078H   26094.89289526  .00031877  00000+0  43469-3 0  9999
2 41891  34.9426 358.0740 0006474 223.2355 136.7861 15.56448499517531
FENGYUN 3D              
1 43010U 17072A   26094.92362917 -.00000005  00000+0  19269-4 0  9991
2 43010  99.0074  68.0463 0000433 256.2618 103.8509 14.19722730434593
NOAA 20 (JPSS-1)        
1 43013U 17073A   26094.90784984  .00000103  00000+0  69971-4 0  9998
2 43013  98.7724  35.0393 0002035 102.3173 257.8231 14.19543187434079
GOES 17                 
1 43226U 18022A   26094.87160764 -.00000181  00000+0  00000+0 0  9999
2 43226   0.7495  86.7995 0001203 258.3114  72.3490  1.00271642 29681
FENGYUN 2H              
1 43491U 18050A   26094.90494389 -.00000124  00000+0  00000+0 0  9998
2 43491   2.8421  79.9482 0001157 171.1190 346.9623  1.00270579 28704
