[{"OBJECT_NAME":"METEOSAT-11 (MSG-4)","OBJECT_ID":"2015-034A","EPOCH":"2026-04-04T21:23:17.369664","MEAN_MOTION":1.0027604,"ECCENTRICITY":0.00017396,"INCLINATION":3.0178,"RA_OF_ASC_NODE":71.4926,"ARG_OF_PERICENTER":285.2508,"MEAN_ANOMALY":166.5854,"EPHEMERIS_TYPE":0,"CLASSIFICATION_TYPE":"U","NORAD_CAT_ID":40732,"ELEMENT_SET_NO":999,"REV_AT_EPOCH":648,"BSTAR":0,"MEAN_MOTION_DOT":6.5e-7,"MEAN_MOTION_DDOT":0},{"OBJECT_NAME":"ELEKTRO-L 2","OBJECT_ID":"2015-074A","EPOCH":"2026-04-04T17:51:07.083072","MEAN_MOTION":1.00272296,"ECCENTRICITY":0.00026372,"INCLINATION":6.5108,"RA_OF_ASC_NODE":71.4154,"ARG_OF_PERICENTER":258.0634,"MEAN_ANOMALY":116.8747,"EPHEMERIS_TYPE":0,"CLASSIFICATION_TYPE":"U","NORAD_CAT_ID":41105,"ELEMENT_SET_NO":999,"REV_AT_EPOCH":3777,"BSTAR":0,"MEAN_MOTION_DOT":-1.14e-6,"MEAN_MOTION_DDOT":0},{"OBJECT_NAME":"INSAT-3DR","OBJECT_ID":"2016-054A","EPOCH":"2026-04-04T21:57:21.682656","MEAN_MOTION":1.00273688,"ECCENTRICITY":0.00120812,"INCLINATION":0.129,"RA_OF_ASC_NODE":86.8069,"ARG_OF_PERICENTER":196.6229,"MEAN_ANOMALY":313.1427,"EPHEMERIS_TYPE":0,"CLASSIFICATION_TYPE":"U","NORAD_CAT_ID":41752,"ELEMENT_SET_NO":999,"REV_AT_EPOCH":3508,"BSTAR":0,"MEAN_MOTION_DOT":-7.7e-7,"MEAN_MOTION_DDOT":0},{"OBJECT_NAME":"HIMAWARI-9","OBJECT_ID":"2016-064A","EPOCH":"2026-04-04T23:11:58.676640","MEAN_MOTION":1.00271139,"ECCENTRICITY":0.0001246,"INCLINATION":0.048,"RA_OF_ASC_NODE":108.4251,"ARG_OF_PERICENTER":289.424,"MEAN_ANOMALY":284.1926,"EPHEMERIS_TYPE":0,"CLASSIFICATION_TYPE":"U","NORAD_CAT_ID":41836,"ELEMENT_SET_NO":999,"REV_AT_EPOCH":3447,"BSTAR":0,"MEAN_MOTION_DOT":-2.74e-6,"MEAN_MOTION_DDOT":0},{"OBJECT_NAME":"GOES 16","OBJECT_ID":"2016-071A","EPOCH":"2026-04-04T20:50:44.818656","MEAN_MOTION":1.00272259,"ECCENTRICITY":0.00018459,"INCLINATION":0.174,"RA_OF_ASC_NODE":85.2963,"ARG_OF_PERICENTER":246.4712,"MEAN_ANOMALY":69.399,"EPHEMERIS_TYPE":0,"CLASSIFICATION_TYPE":"U","NORAD_CAT_ID":41866,"ELEMENT_SET_NO":999,"REV_AT_EPOCH":3436,"BSTAR":0,"MEAN_MOTION_DOT":-9.0e-7,"MEAN_MOTION_DDOT":0},{"OBJECT_NAME":"FENGYUN 4A","OBJECT_ID":"2016-077A","EPOCH":"2026-04-04T21:55:50.930688","MEAN_MOTION":1.00278713,"ECCENTRICITY":0.00079019,"INCLINATION":2.1375,"RA_OF_ASC_NODE":81.0256,"ARG_OF_PERICENTER":139.4162,"MEAN_ANOMALY":65.3806,"EPHEMERIS_TYPE":0,"CLASSIFICATION_TYPE":"U","NORAD_CAT_ID":41882,"ELEMENT_SET_NO":999,"REV_AT_EPOCH":3419,"BSTAR":0,"MEAN_MOTION_DOT":-3.55e-6,"MEAN_MOTION_DDOT":0},{"OBJECT_NAME":"CYGFM05","OBJECT_ID":"2016-078A","EPOCH":"2026-04-04T22:19:57.425664","MEAN_MOTION":15.53573249,"ECCENTRICITY":0.00070714,"INCLINATION":34.9589,"RA_OF_ASC_NODE":24.5182,"ARG_OF_PERICENTER":194.164,"MEAN_ANOMALY":165.8886,"EPHEMERIS_TYPE":0,"CLASSIFICATION_TYPE":"U","NORAD_CAT_ID":41884,"ELEMENT_SET_NO":999,"REV_AT_EPOCH":51734,"BSTAR":0.00043134072,"MEAN_MOTION_DOT":0.00028437,"MEAN_MOTION_DDOT":0},{"OBJECT_NAME":"CYGFM04","OBJECT_ID":"2016-078B","EPOCH":"2026-04-04T22:00:00.865152","MEAN_MOTION":15.57599205,"ECCENTRICITY":0.0007097,"INCLINATION":34.9344,"RA_OF_ASC_NODE":355.6605,"ARG_OF_PERICENTER":234.9826,"MEAN_ANOMALY":125.0232,"EPHEMERIS_TYPE":0,"CLASSIFICATION_TYPE":"U","NORAD_CAT_ID":41885,"ELEMENT_SET_NO":999,"REV_AT_EPOCH":51755,"BSTAR":0.00045688906,"MEAN_MOTION_DOT":0.00035007,"MEAN_MOTION_DDOT":0},{"OBJECT_NAME":"CYGFM02","OBJECT_ID":"2016-078C","EPOCH":"2026-04-04T21:47:40.961472","MEAN_MOTION":15.59815078,"ECCENTRICITY":0.00081117,"INCLINATION":34.9426,"RA_OF_ASC_NODE":352.0489,"ARG_OF_PERICENTER":233.4445,"MEAN_ANOMALY":126.5533,"EPHEMERIS_TYPE":0,"CLASSIFICATION_TYPE":"U","NORAD_CAT_ID":41886,"ELEMENT_SET_NO":999,"REV_AT_EPOCH":51770,"BSTAR":0.00045025406,"MEAN_MOTION_DOT":0.00037554,"MEAN_MOTION_DDOT":0},{"OBJECT_NAME":"CYGFM01","OBJECT_ID":"2016-078D","EPOCH":"2026-04-04T21:13:45.304896","MEAN_MOTION":15.54146057,"ECCENTRICITY":0.00065486,"INCLINATION":34.942,"RA_OF_ASC_NODE":26.4343,"ARG_OF_PERICENTER":187.3159,"MEAN_ANOMALY":172.747,"EPHEMERIS_TYPE":0,"CLASSIFICATION_TYPE":"U","NORAD_CAT_ID":41887,"ELEMENT_SET_NO":999,"REV_AT_EPOCH":51728,"BSTAR":0.00043079536,"MEAN_MOTION_DOT":0.00029001,"MEAN_MOTION_DDOT":0},{"OBJECT_NAME":"CYGFM08","OBJECT_ID":"2016-078E","EPOCH":"2026-04-04T21:27:57.840480","MEAN_MOTION":15.56369159,"ECCENTRICITY":0.00086469,"INCLINATION":34.9455,"RA_OF_ASC_NODE":7.6998,"ARG_OF_PERICENTER":214.3202,"MEAN_ANOMALY":145.6964,"EPHEMERIS_TYPE":0,"CLASSIFICATION_TYPE":"U","NORAD_CAT_ID":41888,"ELEMENT_SET_NO":999,"REV_AT_EPOCH":51753,"BSTAR":0.00043867653,"MEAN_MOTION_DOT":0.00032099,"MEAN_MOTION_DDOT":0},{"OBJECT_NAME":"CYGFM07","OBJECT_ID":"2016-078G","EPOCH":"2026-04-04T20:35:07.182528","MEAN_MOTION":15.56442502,"ECCENTRICITY":0.00075186,"INCLINATION":34.9467,"RA_OF_ASC_NODE":356.3423,"ARG_OF_PERICENTER":232.9281,"MEAN_ANOMALY":127.0757,"EPHEMERIS_TYPE":0,"CLASSIFICATION_TYPE":"U","NORAD_CAT_ID":41890,"ELEMENT_SET_NO":999,"REV_AT_EPOCH":51755,"BSTAR":0.00044078036,"MEAN_MOTION_DOT":0.0003233,"MEAN_MOTION_DDOT":0},{"OBJECT_NAME":"CYGFM03","OBJECT_ID":"2016-078H","EPOCH":"2026-04-04T21:25:46.150464","MEAN_MOTION":15.56448499,"ECCENTRICITY":0.00064745,"INCLINATION":34.9426,"RA_OF_ASC_NODE":358.074,"ARG_OF_PERICENTER":223.2355,"MEAN_ANOMALY":136.7861,"EPHEMERIS_TYPE":0,"CLASSIFICATION_TYPE":"U","NORAD_CAT_ID":41891,"ELEMENT_SET_NO":999,"REV_AT_EPOCH":51753,"BSTAR":0.00043468884,"MEAN_MOTION_DOT":0.00031877,"MEAN_MOTION_DDOT":0},{"OBJECT_NAME":"FENGYUN 3D","OBJECT_ID":"2017-072A","EPOCH":"2026-04-04T22:10:01.560288","MEAN_MOTION":14.1972273,"ECCENTRICITY":4.337e-5,"INCLINATION":99.0074,"RA_OF_ASC_NODE":68.0463,"ARG_OF_PERICENTER":256.2618,"MEAN_ANOMALY":103.8509,"EPHEMERIS_TYPE":0,"CLASSIFICATION_TYPE":"U","NORAD_CAT_ID":43010,"ELEMENT_SET_NO":999,"REV_AT_EPOCH":43459,"BSTAR":1.9269425e-5,"MEAN_MOTION_DOT":-5.0e-8,"MEAN_MOTION_DDOT":0},{"OBJECT_NAME":"NOAA 20 (JPSS-1)","OBJECT_ID":"2017-073A","EPOCH":"2026-04-04T21:47:18.226176","MEAN_MOTION":14.19543187,"ECCENTRICITY":0.00020358,"INCLINATION":98.7724,"RA_OF_ASC_NODE":35.0393,"ARG_OF_PERICENTER":102.3173,"MEAN_ANOMALY":257.8231,"EPHEMERIS_TYPE":0,"CLASSIFICATION_TYPE":"U","NORAD_CAT_ID":43013,"ELEMENT_SET_NO":999,"REV_AT_EPOCH":43407,"BSTAR":6.9970996e-5,"MEAN_MOTION_DOT":1.03e-6,"MEAN_MOTION_DDOT":0},{"OBJECT_NAME":"GOES 17","OBJECT_ID":"2018-022A","EPOCH":"2026-04-04T20:55:06.900096","MEAN_MOTION":1.00271642,"ECCENTRICITY":0.00012031,"INCLINATION":0.7495,"RA_OF_ASC_NODE":86.7995,"ARG_OF_PERICENTER":258.3114,"MEAN_ANOMALY":72.349,"EPHEMERIS_TYPE":0,"CLASSIFICATION_TYPE":"U","NORAD_CAT_ID":43226,"ELEMENT_SET_NO":999,"REV_AT_EPOCH":2968,"BSTAR":0,"MEAN_MOTION_DOT":-1.81e-6,"MEAN_MOTION_DDOT":0},{"OBJECT_NAME":"FENGYUN 2H","OBJECT_ID":"2018-050A","EPOCH":"2026-04-04T21:43:07.152096","MEAN_MOTION":1.00270579,"ECCENTRICITY":0.00011577,"INCLINATION":2.8421,"RA_OF_ASC_NODE":79.9482,"ARG_OF_PERICENTER":171.119,"MEAN_ANOMALY":346.9623,"EPHEMERIS_TYPE":0,"CLASSIFICATION_TYPE":"U","NORAD_CAT_ID":43491,"ELEMENT_SET_NO":999,"REV_AT_EPOCH":2870,"BSTAR":0,"MEAN_MOTION_DOT":-1.24e-6,"MEAN_MOTION_DDOT":0}]
